NORAD_CAT_ID,OBJECT_NAME,OBJECT_TYPE,EPOCH,MEAN_MOTION,ECCENTRICITY,INCLINATION,RA_OF_ASC_NODE,ARG_OF_PERICENTER,MEAN_ANOMALY,BSTAR,MEAN_MOTION_DOT,MEAN_MOTION_DDOT,TLE_LINE0,TLE_LINE1,TLE_LINE2,SEMIMAJOR_AXIS,PERIOD,APOGEE,PERIGEE,DECAYED
49767.0,STARLINK-3192,PAYLOAD,2022-06-10 18:56:20,15.08839274,0.0002493,53.2196,159.8717,46.1137,314.0061,-3.9567e-05,-9.18e-06,0.0,0 STARLINK-3192,1 49767U 21115AV  22161.78912547 -.00000918  00000-0 -39567-4 0  9992,2 49767  53.2196 159.8717 0002493  46.1137 314.0061 15.08839274 30284,6917.8830000000025,95.438,541.472,538.023,0.0
49767.0,STARLINK-3192,PAYLOAD,2022-06-11 06:04:01,15.08854644,0.0002615,53.2194,157.7898,46.0388,314.082,-0.00023009,-3.950000000000001e-05,0.0,0 STARLINK-3192,1 49767U 21115AV  22162.25280042 -.00003950  00000-0 -23009-3 0  9995,2 49767  53.2194 157.7898 0002615  46.0388 314.0820 15.08854644 30351,6917.8359999999975,95.437,541.51,537.8919999999998,0.0
49767.0,STARLINK-3192,PAYLOAD,2022-06-11 17:11:44,15.08835365,0.0002534,53.2196,155.7089,47.5581,312.5625,8.556799999999999e-05,1.074e-05,0.0,0 STARLINK-3192,1 49767U 21115AV  22162.71648734  .00001074  00000-0  85568-4 0  9994,2 49767  53.2196 155.7089 0002534  47.5581 312.5625 15.08835365 30427,6917.895,95.438,541.513,538.007,0.0
49767.0,STARLINK-3192,PAYLOAD,2022-06-12 05:54:49,15.08838687,0.000258,53.2198,153.3305,47.79,312.3311,8.5111e-05,1.066e-05,0.0,0 STARLINK-3192,1 49767U 21115AV  22163.24640693  .00001066  00000-0  85111-4 0  9994,2 49767  53.2198 153.3305 0002580  47.7900 312.3311 15.08838687 29396,6917.884,95.438,541.534,537.965,0.0
49767.0,STARLINK-3192,PAYLOAD,2022-06-13 05:45:36,15.08847198,0.0002631,53.22,148.8705,49.4384,310.6837,0.00012897,1.765e-05,0.0,0 STARLINK-3192,1 49767U 21115AV  22164.24000078  .00001765  00000-0  12897-3 0  9998,2 49767  53.2200 148.8705 0002631  49.4384 310.6837 15.08847198 30657,6917.858,95.437,541.543,537.903,0.0
49767.0,STARLINK-3192,PAYLOAD,2022-06-13 08:56:22,15.08848553,0.0002647,53.2202,148.2758,49.6286,310.4937,0.00012703,1.734e-05,0.0,0 STARLINK-3192,1 49767U 21115AV  22164.37247961  .00001734  00000-0  12703-3 0  9998,2 49767  53.2202 148.2758 0002647  49.6286 310.4937 15.08848553 29564,6917.854,95.437,541.55,537.888,0.0
49767.0,STARLINK-3192,PAYLOAD,2022-06-14 05:36:23,15.08845425,0.0002694,53.2202,144.41,51.824,308.2995,6.3264e-05,7.19e-06,0.0,0 STARLINK-3192,1 49767U 21115AV  22165.23360111  .00000719  00000-0  63264-4 0  9998,2 49767  53.2202 144.4100 0002694  51.8240 308.2995 15.08845425 30803,6917.864000000001,95.437,541.592,537.865,0.0
49767.0,STARLINK-3192,PAYLOAD,2022-06-14 08:47:09,15.08845064,0.0002686,53.2205,143.8159,51.2846,308.8386,4.2725e-05,3.92e-06,0.0,0 STARLINK-3192,1 49767U 21115AV  22165.36608147  .00000392  00000-0  42725-4 0  9992,2 49767  53.2205 143.8159 0002686  51.2846 308.8386 15.08845064 29717,6917.865,95.437,541.5880000000002,537.872,0.0
49767.0,STARLINK-3192,PAYLOAD,2022-06-14 18:19:27,15.08850507,0.0002682,53.2199,142.0317,51.2689,308.8543,4.383600000000001e-05,4.09e-06,0.0,0 STARLINK-3192,1 49767U 21115AV  22165.76351597  .00000409  00000-0  43836-4 0  9993,2 49767  53.2199 142.0317 0002682  51.2689 308.8543 15.08850507 29776,6917.848000000001,95.437,541.569,537.8580000000002,0.0
49767.0,STARLINK-3192,PAYLOAD,2022-06-15 05:27:10,15.08840313,0.0002728,53.22,139.9506,53.3495,306.7747,-4.4076e-05,-9.9e-06,0.0,0 STARLINK-3192,1 49767U 21115AV  22166.22720363 -.00000990  00000-0 -44076-4 0  9990,2 49767  53.2200 139.9506 0002728  53.3495 306.7747 15.08840313 30952,6917.879,95.438,541.632,537.857,0.0
49767.0,STARLINK-3192,PAYLOAD,2022-06-15 16:34:52,15.08841514,0.0002654,53.22,137.8688,51.1319,308.991,-6.282e-05,-1.288e-05,0.0,0 STARLINK-3192,1 49767U 21115AV  22166.69088286 -.00001288  00000-0 -62820-4 0  9990,2 49767  53.2200 137.8688 0002654  51.1319 308.9910 15.08841514 29913,6917.876,95.437,541.577,537.905,0.0
49767.0,STARLINK-3192,PAYLOAD,2022-06-15 22:56:24,15.08838525,0.0002593,53.2202,136.6795,52.0899,308.0327,5.2766e-05,5.51e-06,0.0,0 STARLINK-3192,1 49767U 21115AV  22166.95584071  .00000551  00000-0  52766-4 0  9990,2 49767  53.2202 136.6795 0002593  52.0899 308.0327 15.08838525 29951,6917.885,95.438,541.544,537.956,0.0
49767.0,STARLINK-3192,PAYLOAD,2022-06-19 06:25:41,15.08842291,0.0002513,53.2182,121.8112,58.3071,301.8166,8.0578e-05,9.94e-06,0.0,0 STARLINK-3192,1 49767U 21115AV  22170.26784131  .00000994  00000-0  80578-4 0  9991,2 49767  53.2182 121.8112 0002513  58.3071 301.8166 15.08842291 30454,6917.873000000001,95.437,541.477,538.0,0.0
49767.0,STARLINK-3192,PAYLOAD,2022-06-19 14:22:36,15.08845215,0.0002545,53.2184,120.3247,58.463,301.661,9.9507e-05,1.296e-05,0.0,0 STARLINK-3192,1 49767U 21115AV  22170.59903837  .00001296  00000-0  99507-4 0  9991,2 49767  53.2184 120.3247 0002545  58.4630 301.6610 15.08845215 31616,6917.864000000001,95.437,541.49,537.969,0.0
49767.0,STARLINK-3192,PAYLOAD,2022-06-20 03:05:42,15.08837188,0.0002499,53.2182,117.9465,58.4867,301.6369,9.4647e-05,1.218e-05,0.0,0 STARLINK-3192,1 49767U 21115AV  22171.12896423  .00001218  00000-0  94647-4 0  9997,2 49767  53.2182 117.9465 0002499  58.4867 301.6369 15.08837188 31697,6917.889,95.438,541.4830000000002,538.025,0.0
49767.0,STARLINK-3192,PAYLOAD,2022-06-20 06:16:28,15.08839307,0.0002572,53.2179,117.3521,58.5584,301.5659,0.00010865,1.441e-05,0.0,0 STARLINK-3192,1 49767U 21115AV  22171.26144283  .00001441  00000-0  10865-3 0  9999,2 49767  53.2179 117.3521 0002572  58.5584 301.5659 15.08839307 30605,6917.8830000000025,95.438,541.5269999999998,537.9680000000002,0.0
49767.0,STARLINK-3192,PAYLOAD,2022-06-20 20:34:56,15.08841776,0.0002697,53.2176,114.6764,60.5078,299.6183,0.00010568,1.394e-05,0.0,0 STARLINK-3192,1 49767U 21115AV  22171.85760114  .00001394  00000-0  10568-3 0  9998,2 49767  53.2176 114.6764 0002697  60.5078 299.6183 15.08841776 30691,6917.875,95.437,541.606,537.874,0.0
49767.0,STARLINK-3192,PAYLOAD,2022-06-21 04:31:53,15.0883485,0.0002588,53.2181,113.1889,60.166,299.9589,-4.1393e-05,-9.47e-06,0.0,0 STARLINK-3192,1 49767U 21115AV  22172.18881119 -.00000947  00000-0 -41393-4 0  9990,2 49767  53.2181 113.1889 0002588  60.1660 299.9589 15.08834850 31858,6917.896,95.438,541.5509999999998,537.971,0.0
49767.0,STARLINK-3192,PAYLOAD,2022-06-21 12:28:49,15.08832361,0.0002052,53.2192,111.7027,54.545,305.5733,-8.0578e-05,-1.57e-05,0.0,0 STARLINK-3192,1 49767U 21115AV  22172.52001403 -.00001570  00000-0 -80578-4 0  9999,2 49767  53.2192 111.7027 0002052  54.5450 305.5733 15.08832361 30790,6917.904,95.438,541.188,538.349,0.0
49767.0,STARLINK-3192,PAYLOAD,2022-06-21 20:25:45,15.08829865,0.0002487,53.2195,110.2153,56.1147,304.0081,1.404e-05,-6.5e-07,0.0,0 STARLINK-3192,1 49767U 21115AV  22172.85121558 -.00000065  00000-0  14040-4 0  9997,2 49767  53.2195 110.2153 0002487  56.1147 304.0081 15.08829865 30841,6917.911,95.438,541.497,538.056,0.0
49767.0,STARLINK-3192,PAYLOAD,2022-06-22 12:19:35,15.08843591,0.0002511,53.2196,107.2422,56.9131,303.2102,5.0299e-05,5.12e-06,0.0,0 STARLINK-3192,1 49767U 21115AV  22173.51360743  .00000512  00000-0  50299-4 0  9994,2 49767  53.2196 107.2422 0002511  56.9131 303.2102 15.08843591 32058,6917.869000000002,95.437,541.471,537.997,0.0
49767.0,STARLINK-3192,PAYLOAD,2022-06-23 04:13:27,15.08832229,0.0002462,53.2195,104.2692,57.9071,302.216,0.00013506,1.861e-05,0.0,0 STARLINK-3192,1 49767U 21115AV  22174.17601336  .00001861  00000-0  13506-3 0  9990,2 49767  53.2195 104.2692 0002462  57.9071 302.2160 15.08832229 32152,6917.904,95.438,541.472,538.066,0.0
49767.0,STARLINK-3192,PAYLOAD,2022-06-23 12:10:23,15.08836176,0.0002434,53.2193,102.7826,57.7253,302.3975,0.00014244,1.979e-05,0.0,0 STARLINK-3192,1 49767U 21115AV  22174.50721213  .00001979  00000-0  14244-3 0  9994,2 49767  53.2193 102.7826 0002434  57.7253 302.3975 15.08836176 31093,6917.892,95.438,541.441,538.073,0.0
49767.0,STARLINK-3192,PAYLOAD,2022-06-24 12:01:10,15.08836827,0.000235,53.2201,98.3221,56.5049,303.6168,-2.8043e-05,-7.35e-06,0.0,0 STARLINK-3192,1 49767U 21115AV  22175.50081659 -.00000735  00000-0 -28043-4 0  9992,2 49767  53.2201  98.3221 0002350  56.5049 303.6168 15.08836827 32350,6917.89,95.438,541.381,538.129,0.0
49767.0,STARLINK-3192,PAYLOAD,2022-06-25 02:19:40,15.08822511,0.0002293,53.2199,95.646,56.5878,303.5333,-0.0001315999999999,-2.381e-05,0.0,0 STARLINK-3192,1 49767U 21115AV  22176.09699253 -.00002381  00000-0 -13160-3 0  9994,2 49767  53.2199  95.6460 0002293  56.5878 303.5333 15.08822511 32445,6917.934,95.439,541.385,538.2130000000002,0.0
49767.0,STARLINK-3192,PAYLOAD,2022-06-25 11:51:58,15.0882598,0.0002307,53.2198,93.862,57.08,303.0414,-9.4922e-05,-1.798e-05,0.0,0 STARLINK-3192,1 49767U 21115AV  22176.49443261 -.00001798  00000-0 -94922-4 0  9991,2 49767  53.2198  93.8620 0002307  57.0800 303.0414 15.08825980 31390,6917.9230000000025,95.438,541.384,538.192,0.0
49767.0,STARLINK-3192,PAYLOAD,2022-06-26 03:45:50,15.0883027,0.0002447,53.219,90.8882,58.9873,301.1359,3.7007e-05,3e-06,0.0,0 STARLINK-3192,1 49767U 21115AV  22177.15683040  .00000300  00000-0  37007-4 0  9993,2 49767  53.2190  90.8882 0002447  58.9873 301.1359 15.08830270 32604,6917.91,95.438,541.4680000000002,538.082,0.0
49767.0,STARLINK-3192,PAYLOAD,2022-06-26 11:42:45,15.08833617,0.0002356,53.2193,89.4023,57.7567,302.3653,0.0001229,1.668e-05,0.0,0 STARLINK-3192,1 49767U 21115AV  22177.48802682  .00001668  00000-0  12290-3 0  9998,2 49767  53.2193  89.4023 0002356  57.7567 302.3653 15.08833617 31544,6917.9,95.438,541.395,538.135,0.0
49767.0,STARLINK-3192,PAYLOAD,2022-06-26 21:15:04,15.08835195,0.0002203,53.2191,87.6172,58.4076,301.7131,0.00020145,2.919e-05,0.0,0 STARLINK-3192,1 49767U 21115AV  22177.88546406  .00002919  00000-0  20145-3 0  9999,2 49767  53.2191  87.6172 0002203  58.4076 301.7131 15.08835195 32718,6917.895,95.438,541.284,538.236,0.0
